CCSDS_OMM_VERS = 2.0
CREATION_DATE  = 
ORIGINATOR     = 

OBJECT_NAME    = SL-14 R/B
OBJECT_ID      = 1986-046B
CENTER_NAME    = EARTH
REF_FRAME      = TEME
TIME_SYSTEM    = UTC
MEAN_ELEMENT_THEORY = SGP/SGP4

EPOCH          = 2025-12-26T12:33:28.434528
MEAN_MOTION    = 14.85499697
ECCENTRICITY   = .00245605
INCLINATION    = 82.4818
RA_OF_ASC_NODE = 149.2968
ARG_OF_PERICENTER = 108.7952
MEAN_ANOMALY   = 251.5931

EPHEMERIS_TYPE = 0
CLASSIFICATION_TYPE = U
NORAD_CAT_ID   = 16792
ELEMENT_SET_NO = 999
REV_AT_EPOCH   = 11554
BSTAR          = .69649826E-4
MEAN_MOTION_DOT = .629E-5
MEAN_MOTION_DDOT = 0

CCSDS_OMM_VERS = 2.0
CREATION_DATE  = 
ORIGINATOR     = 

OBJECT_NAME    = SL-14 R/B
OBJECT_ID      = 1986-055B
CENTER_NAME    = EARTH
REF_FRAME      = TEME
TIME_SYSTEM    = UTC
MEAN_ELEMENT_THEORY = SGP/SGP4

EPOCH          = 2025-12-26T14:05:26.032704
MEAN_MOTION    = 14.85543880
ECCENTRICITY   = .00181179
INCLINATION    = 82.5193
RA_OF_ASC_NODE = 195.3606
ARG_OF_PERICENTER = 210.3029
MEAN_ANOMALY   = 204.0760

EPHEMERIS_TYPE = 0
CLASSIFICATION_TYPE = U
NORAD_CAT_ID   = 16882
ELEMENT_SET_NO = 999
REV_AT_EPOCH   = 10851
BSTAR          = .5833364E-4
MEAN_MOTION_DOT = .529E-5
MEAN_MOTION_DDOT = 0

CCSDS_OMM_VERS = 2.0
CREATION_DATE  = 
ORIGINATOR     = 

OBJECT_NAME    = AJISAI (EGS)
OBJECT_ID      = 1986-061A
CENTER_NAME    = EARTH
REF_FRAME      = TEME
TIME_SYSTEM    = UTC
MEAN_ELEMENT_THEORY = SGP/SGP4

EPOCH          = 2025-12-26T15:48:36.190944
MEAN_MOTION    = 12.44514430
ECCENTRICITY   = .0011313
INCLINATION    = 50.0112
RA_OF_ASC_NODE = 317.9175
ARG_OF_PERICENTER = 100.8318
MEAN_ANOMALY   = 69.7942

EPHEMERIS_TYPE = 0
CLASSIFICATION_TYPE = U
NORAD_CAT_ID   = 16908
ELEMENT_SET_NO = 999
REV_AT_EPOCH   = 45890
BSTAR          = .54628729E-4
MEAN_MOTION_DOT = -.9E-6
MEAN_MOTION_DDOT = 0

CCSDS_OMM_VERS = 2.0
CREATION_DATE  = 
ORIGINATOR     = 

OBJECT_NAME    = COSMOS 1812
OBJECT_ID      = 1987-003A
CENTER_NAME    = EARTH
REF_FRAME      = TEME
TIME_SYSTEM    = UTC
MEAN_ELEMENT_THEORY = SGP/SGP4

EPOCH          = 2025-12-26T05:56:08.583648
MEAN_MOTION    = 15.78351656
ECCENTRICITY   = .00061284
INCLINATION    = 82.4869
RA_OF_ASC_NODE = 277.3663
ARG_OF_PERICENTER = 67.8935
MEAN_ANOMALY   = 292.2982

EPHEMERIS_TYPE = 0
CLASSIFICATION_TYPE = U
NORAD_CAT_ID   = 17295
ELEMENT_SET_NO = 999
REV_AT_EPOCH   = 13278
BSTAR          = .64065844E-3
MEAN_MOTION_DOT = .111322E-2
MEAN_MOTION_DDOT = 0

CCSDS_OMM_VERS = 2.0
CREATION_DATE  = 
ORIGINATOR     = 

OBJECT_NAME    = SL-14 R/B
OBJECT_ID      = 1987-024B
CENTER_NAME    = EARTH
REF_FRAME      = TEME
TIME_SYSTEM    = UTC
MEAN_ELEMENT_THEORY = SGP/SGP4

EPOCH          = 2025-12-26T10:45:52.415712
MEAN_MOTION    = 14.86038146
ECCENTRICITY   = .00192241
INCLINATION    = 82.5278
RA_OF_ASC_NODE = 161.5760
ARG_OF_PERICENTER = 139.8209
MEAN_ANOMALY   = 220.4434

EPHEMERIS_TYPE = 0
CLASSIFICATION_TYPE = U
NORAD_CAT_ID   = 17567
ELEMENT_SET_NO = 999
REV_AT_EPOCH   = 7725
BSTAR          = .66841092E-4
MEAN_MOTION_DOT = .611E-5
MEAN_MOTION_DDOT = 0

CCSDS_OMM_VERS = 2.0
CREATION_DATE  = 
ORIGINATOR     = 

OBJECT_NAME    = COSMOS 1833
OBJECT_ID      = 1987-027A
CENTER_NAME    = EARTH
REF_FRAME      = TEME
TIME_SYSTEM    = UTC
MEAN_ELEMENT_THEORY = SGP/SGP4

EPOCH          = 2025-12-26T14:13:39.047520
MEAN_MOTION    = 14.13029135
ECCENTRICITY   = .00231485
INCLINATION    = 70.9165
RA_OF_ASC_NODE = 119.6563
ARG_OF_PERICENTER = 312.3946
MEAN_ANOMALY   = 47.5216

EPHEMERIS_TYPE = 0
CLASSIFICATION_TYPE = U
NORAD_CAT_ID   = 17589
ELEMENT_SET_NO = 999
REV_AT_EPOCH   = 99998
BSTAR          = .18909955E-3
MEAN_MOTION_DOT = .306E-5
MEAN_MOTION_DDOT = 0

CCSDS_OMM_VERS = 2.0
CREATION_DATE  = 
ORIGINATOR     = 

OBJECT_NAME    = SL-16 R/B
OBJECT_ID      = 1987-027B
CENTER_NAME    = EARTH
REF_FRAME      = TEME
TIME_SYSTEM    = UTC
MEAN_ELEMENT_THEORY = SGP/SGP4

EPOCH          = 2025-12-26T13:35:48.984288
MEAN_MOTION    = 14.17156482
ECCENTRICITY   = .00071999
INCLINATION    = 71.0038
RA_OF_ASC_NODE = 70.5834
ARG_OF_PERICENTER = 245.3706
MEAN_ANOMALY   = 114.6668

EPHEMERIS_TYPE = 0
CLASSIFICATION_TYPE = U
NORAD_CAT_ID   = 17590
ELEMENT_SET_NO = 999
REV_AT_EPOCH   = 498
BSTAR          = -.42449133E-4
MEAN_MOTION_DOT = -.134E-5
MEAN_MOTION_DDOT = 0

CCSDS_OMM_VERS = 2.0
CREATION_DATE  = 
ORIGINATOR     = 

OBJECT_NAME    = SL-14 R/B
OBJECT_ID      = 1987-038B
CENTER_NAME    = EARTH
REF_FRAME      = TEME
TIME_SYSTEM    = UTC
MEAN_ELEMENT_THEORY = SGP/SGP4

EPOCH          = 2025-12-26T11:21:22.730400
MEAN_MOTION    = 14.85273814
ECCENTRICITY   = .00205215
INCLINATION    = 82.5010
RA_OF_ASC_NODE = 5.7642
ARG_OF_PERICENTER = 49.8421
MEAN_ANOMALY   = 310.4588

EPHEMERIS_TYPE = 0
CLASSIFICATION_TYPE = U
NORAD_CAT_ID   = 17912
ELEMENT_SET_NO = 999
REV_AT_EPOCH   = 6836
BSTAR          = .58741347E-4
MEAN_MOTION_DOT = .53E-5
MEAN_MOTION_DDOT = 0

CCSDS_OMM_VERS = 2.0
CREATION_DATE  = 
ORIGINATOR     = 

OBJECT_NAME    = COSMOS 1844
OBJECT_ID      = 1987-041A
CENTER_NAME    = EARTH
REF_FRAME      = TEME
TIME_SYSTEM    = UTC
MEAN_ELEMENT_THEORY = SGP/SGP4

EPOCH          = 2025-12-26T13:31:47.189568
MEAN_MOTION    = 14.14532542
ECCENTRICITY   = .00294871
INCLINATION    = 70.8968
RA_OF_ASC_NODE = 188.4136
ARG_OF_PERICENTER = 135.2247
MEAN_ANOMALY   = 225.1262

EPHEMERIS_TYPE = 0
CLASSIFICATION_TYPE = U
NORAD_CAT_ID   = 17973
ELEMENT_SET_NO = 999
REV_AT_EPOCH   = 99324
BSTAR          = .20307235E-3
MEAN_MOTION_DOT = .343E-5
MEAN_MOTION_DDOT = 0

CCSDS_OMM_VERS = 2.0
CREATION_DATE  = 
ORIGINATOR     = 

OBJECT_NAME    = SL-14 R/B
OBJECT_ID      = 1987-055B
CENTER_NAME    = EARTH
REF_FRAME      = TEME
TIME_SYSTEM    = UTC
MEAN_ELEMENT_THEORY = SGP/SGP4

EPOCH          = 2025-12-26T04:38:14.053344
MEAN_MOTION    = 14.85534596
ECCENTRICITY   = .00191976
INCLINATION    = 82.4991
RA_OF_ASC_NODE = 58.3093
ARG_OF_PERICENTER = 255.4216
MEAN_ANOMALY   = 104.4872

EPHEMERIS_TYPE = 0
CLASSIFICATION_TYPE = U
NORAD_CAT_ID   = 18153
ELEMENT_SET_NO = 999
REV_AT_EPOCH   = 5902
BSTAR          = .57447838E-4
MEAN_MOTION_DOT = .522E-5
MEAN_MOTION_DDOT = 0

CCSDS_OMM_VERS = 2.0
CREATION_DATE  = 
ORIGINATOR     = 

OBJECT_NAME    = COSMOS 1867
OBJECT_ID      = 1987-060A
CENTER_NAME    = EARTH
REF_FRAME      = TEME
TIME_SYSTEM    = UTC
MEAN_ELEMENT_THEORY = SGP/SGP4

EPOCH          = 2025-12-26T13:48:28.487808
MEAN_MOTION    = 14.31488356
ECCENTRICITY   = .00136934
INCLINATION    = 65.0092
RA_OF_ASC_NODE = 151.4570
ARG_OF_PERICENTER = 272.4529
MEAN_ANOMALY   = 87.4987

EPHEMERIS_TYPE = 0
CLASSIFICATION_TYPE = U
NORAD_CAT_ID   = 18187
ELEMENT_SET_NO = 999
REV_AT_EPOCH   = 947
BSTAR          = .39596871E-4
MEAN_MOTION_DOT = .5E-7
MEAN_MOTION_DDOT = 0

CCSDS_OMM_VERS = 2.0
CREATION_DATE  = 
ORIGINATOR     = 

OBJECT_NAME    = SL-14 R/B
OBJECT_ID      = 1988-001B
CENTER_NAME    = EARTH
REF_FRAME      = TEME
TIME_SYSTEM    = UTC
MEAN_ELEMENT_THEORY = SGP/SGP4

EPOCH          = 2025-12-26T10:52:33.893184
MEAN_MOTION    = 14.85437657
ECCENTRICITY   = .001944
INCLINATION    = 82.5133
RA_OF_ASC_NODE = 264.2499
ARG_OF_PERICENTER = 118.0960
MEAN_ANOMALY   = 242.2224

EPHEMERIS_TYPE = 0
CLASSIFICATION_TYPE = U
NORAD_CAT_ID   = 18749
ELEMENT_SET_NO = 999
REV_AT_EPOCH   = 3115
BSTAR          = .55724538E-4
MEAN_MOTION_DOT = .506E-5
MEAN_MOTION_DDOT = 0

