SL-14 R/B               
1 16792U 86046B   25360.52324577  .00000629  00000+0  69650-4 0  9996
2 16792  82.4818 149.2968 0024560 108.7952 251.5931 14.85499697115540
SL-14 R/B               
1 16882U 86055B   25360.58710686  .00000529  00000+0  58334-4 0  9998
2 16882  82.5193 195.3606 0018117 210.3029 204.0760 14.85543880108510
AJISAI (EGS)            
1 16908U 86061A   25360.65875221 -.00000090  00000+0  54629-4 0  9996
2 16908  50.0112 317.9175 0011313 100.8318  69.7942 12.44514430458909
COSMOS 1812             
1 17295U 87003A   25360.24732157  .00111322  00000+0  64066-3 0  9993
2 17295  82.4869 277.3663 0006128  67.8935 292.2982 15.78351656132784
SL-14 R/B               
1 17567U 87024B   25360.44852333  .00000611  00000+0  66841-4 0  9991
2 17567  82.5278 161.5760 0019224 139.8209 220.4434 14.86038146 77257
COSMOS 1833             
1 17589U 87027A   25360.59281305  .00000306  00000+0  18910-3 0  9993
2 17589  70.9165 119.6563 0023148 312.3946  47.5216 14.13029135999985
SL-16 R/B               
1 17590U 87027B   25360.56653917 -.00000134  00000+0 -42449-4 0  9990
2 17590  71.0038  70.5834 0007199 245.3706 114.6668 14.17156482  4985
SL-14 R/B               
1 17912U 87038B   25360.47317975  .00000530  00000+0  58741-4 0  9991
2 17912  82.5010   5.7642 0020521  49.8421 310.4588 14.85273814 68365
COSMOS 1844             
1 17973U 87041A   25360.56374062  .00000343  00000+0  20307-3 0  9990
2 17973  70.8968 188.4136 0029487 135.2247 225.1262 14.14532542993240
SL-14 R/B               
1 18153U 87055B   25360.19321821  .00000522  00000+0  57448-4 0  9996
2 18153  82.4991  58.3093 0019197 255.4216 104.4872 14.85534596 59025
COSMOS 1867             
1 18187U 87060A   25360.57532972  .00000005  00000+0  39597-4 0  9993
2 18187  65.0092 151.4570 0013693 272.4529  87.4987 14.31488356  9471
SL-14 R/B               
1 18749U 88001B   25360.45317006  .00000506  00000+0  55725-4 0  9996
2 18749  82.5133 264.2499 0019440 118.0960 242.2224 14.85437657 31150
